HULIANWANG DIGUI-118    
1 66957U 25287E   26197.19767686  .00000033  00000+0  41887-4 0  9999
2 66957  86.4922 272.5235 0002343  98.4104 261.7295 13.24412213 29185
STARLINK-35887          
1 66959U 25288A   26197.20640040  .00006338  00000+0  23965-3 0  9998
2 66959  43.0011  17.5568 0000941 282.9685  77.1062 15.27580659 34943
STARLINK-35879          
1 66960U 25288B   26196.50128657  .00009508  00000+0  35461-3 0  9993
2 66960  43.0058  21.7215 0002483 264.7121  95.3447 15.27578719 34839
STARLINK-35761          
1 66961U 25288C   26196.85890428  .00010452  00000+0  38871-3 0  9992
2 66961  43.0001  19.2452 0001534 259.9812 100.0867 15.27587944 34898
STARLINK-35874          
1 66962U 25288D   26196.92058418  .00009316  00000+0  34756-3 0  9991
2 66962  43.0019  19.7068 0001598 268.7960  91.2709 15.27587747 34895
STARLINK-36133          
1 66963U 25288E   26197.22182122  .00012634  00000+0  46784-3 0  9997
2 66963  43.0024  17.6660 0001197 271.0578  89.0136 15.27579909 34940
STARLINK-36104          
1 66964U 25288F   26196.91157404  .00012915  00000+0  47755-3 0  9999
2 66964  43.0020  19.6424 0001770 285.7028  74.3628 15.27612522 34892
STARLINK-36067          
1 66965U 25288G   26196.87046662  .00010973  00000+0  40767-3 0  9996
2 66965  43.0125  19.3215 0002777 254.5484 105.5061 15.27580398 34895
STARLINK-36139          
1 66966U 25288H   26197.19869073  .00008491  00000+0  31775-3 0  9993
2 66966  43.0001  17.4925 0000600 300.9989  59.0804 15.27576385 34940
STARLINK-36136          
1 66967U 25288J   26196.48972171  .00009107  00000+0  33994-3 0  9999
2 66967  42.9998  21.6344 0001702  52.9005 307.2002 15.27593346 34835
STARLINK-36152          
1 66968U 25288K   26196.51283163  .00004625  00000+0  17740-3 0  9991
2 66968  42.9989  21.8028 0000709 232.7133 127.3654 15.27594504 34834
STARLINK-36149          
1 66969U 25288L   26196.91416448  .00007085  00000+0  26691-3 0  9998
2 66969  42.9996  19.6608 0001162 331.3811  28.6976 15.27557566 34898
STARLINK-35703          
1 66970U 25288M   26196.86789520  .00011299  00000+0  41947-3 0  9991
2 66970  43.0126  19.2944 0002779 249.2025 110.8529 15.27580271 34892
STARLINK-35678          
1 66971U 25288N   26197.21411078  .00009045  00000+0  33780-3 0  9994
2 66971  43.0011  17.6043 0000763 273.0148  87.0617 15.27578970 34942
STARLINK-34846          
1 66972U 25288P   26196.87560950  .00007013  00000+0  26409-3 0  9993
2 66972  43.0031  19.3629 0001397 259.1175 100.9519 15.27584023 34899
STARLINK-35778          
1 66973U 25288Q   26196.92814723  .00010738  00000+0  39904-3 0  9992
2 66973  43.0015  18.9047 0001505 268.1564  91.9115 15.27589465 34902
STARLINK-35780          
1 66974U 25288R   26196.92172402  .00013295  00000+0  49170-3 0  9991
2 66974  43.0004  18.8516 0001574 275.9495  84.1177 15.27584976 34900
STARLINK-35777          
1 66975U 25288S   26196.91930094  .00008753  00000+0  32715-3 0  9990
2 66975  43.0011  19.6979 0001433 279.2431  80.8259 15.27589200 34899
STARLINK-35772          
1 66976U 25288T   26196.88589384  .00009814  00000+0  36555-3 0  9994
2 66976  43.0039  19.4905 0001889 265.5485  94.5151 15.27591491 34897
STARLINK-35770          
1 66977U 25288U   26197.23081855  .00006303  00000+0  23840-3 0  9998
2 66977  42.9953  17.7374 0002006  73.9441 286.1631 15.27575167 34947
STARLINK-35787          
1 66978U 25288V   26196.86661501  .00013176  00000+0  48723-3 0  9992
2 66978  43.0018  19.3025 0001525 274.1794  85.8883 15.27595931 34892
STARLINK-36107          
1 66979U 25288W   26196.91801329  .00010582  00000+0  39339-3 0  9994
2 66979  43.0029  19.6779 0002447 253.1501 106.9083 15.27589722 34899
STARLINK-36086          
1 66980U 25288X   26196.77696370  .00008333  00000+0  31192-3 0  9998
2 66980  43.0010  20.3476 0001565 288.6207  71.4474 15.27586573 34879
STARLINK-36142          
1 66981U 25288Y   26197.22438862  .00005388  00000+0  20515-3 0  9994
2 66981  43.0026  17.6854 0001134 286.4523  73.6204 15.27582145 34949
STARLINK-36113          
1 66982U 25288Z   26196.92557435  .00007475  00000+0  28075-3 0  9997
2 66982  43.0043  18.8765 0002149 258.8476 101.2135 15.27596154 34902
STARLINK-36145          
1 66983U 25288AA  26197.22567370  .00009084  00000+0  33917-3 0  9990
2 66983  43.0040  17.6902 0001677 268.7025  91.3634 15.27583335 34949
STARLINK-35591          
1 66984U 25288AB  26196.90901703  .00006130  00000+0  23224-3 0  9996
2 66984  43.0046  19.6132 0002163 275.4184  84.6421 15.27562611 34892
STARLINK-36103          
1 66985U 25288AC  26196.91030631  .00007732  00000+0  29018-3 0  9997
2 66985  43.0030  19.6195 0001666 268.6447  91.4214 15.27582996 34892
STARLINK-36135          
1 66986U 25288AD  26197.21796117  .00009109  00000+0  34008-3 0  9995
2 66986  43.0032  17.6311 0002392 268.9701  91.0877 15.27585097 34948
STARLINK-36147          
1 66987U 25288AE  26197.21025339  .00011334  00000+0  42079-3 0  9997
2 66987  43.0010  17.5719 0000789 277.3157  82.7604 15.27577850 34946
