OBJECT_NAME,OBJECT_ID,EPOCH,MEAN_MOTION,ECCENTRICITY,INCLINATION,RA_OF_ASC_NODE,ARG_OF_PERICENTER,MEAN_ANOMALY,EPHEMERIS_TYPE,CLASSIFICATION_TYPE,NORAD_CAT_ID,ELEMENT_SET_NO,REV_AT_EPOCH,BSTAR,MEAN_MOTION_DOT,MEAN_MOTION_DDOT
HULIANWANG DIGUI-118,2025-287E,2026-07-16T04:44:39.280704,13.24412213,.0002343,86.4922,272.5235,98.4104,261.7295,0,U,66957,999,2918,.41886661E-4,.33E-6,0
STARLINK-35887,2025-288A,2026-07-16T04:57:12.994560,15.27580659,.00009419,43.0011,17.5568,282.9685,77.1062,0,U,66959,999,3494,.23964959E-3,.6338E-4,0
STARLINK-35879,2025-288B,2026-07-15T12:01:51.159648,15.27578719,.0002483,43.0058,21.7215,264.7121,95.3447,0,U,66960,999,3483,.35461477E-3,.9508E-4,0
STARLINK-35761,2025-288C,2026-07-15T20:36:49.329792,15.27587944,.0001534,43.0001,19.2452,259.9812,100.0867,0,U,66961,999,3489,.38871E-3,.10452E-3,0
STARLINK-35874,2025-288D,2026-07-15T22:05:38.473152,15.27587747,.0001598,43.0019,19.7068,268.7960,91.2709,0,U,66962,999,3489,.34756E-3,.9316E-4,0
STARLINK-36133,2025-288E,2026-07-16T05:19:25.353408,15.27579909,.00011974,43.0024,17.6660,271.0578,89.0136,0,U,66963,999,3494,.46783998E-3,.12634E-3,0
STARLINK-36104,2025-288F,2026-07-15T21:52:39.997056,15.27612522,.000177,43.0020,19.6424,285.7028,74.3628,0,U,66964,999,3489,.47755E-3,.12915E-3,0
STARLINK-36067,2025-288G,2026-07-15T20:53:28.315968,15.27580398,.0002777,43.0125,19.3215,254.5484,105.5061,0,U,66965,999,3489,.40767E-3,.10973E-3,0
STARLINK-36139,2025-288H,2026-07-16T04:46:06.879072,15.27576385,.00006006,43.0001,17.4925,300.9989,59.0804,0,U,66966,999,3494,.31775154E-3,.8491E-4,0
STARLINK-36136,2025-288J,2026-07-15T11:45:11.955744,15.27593346,.0001702,42.9998,21.6344,52.9005,307.2002,0,U,66967,999,3483,.33993666E-3,.9107E-4,0
STARLINK-36152,2025-288K,2026-07-15T12:18:28.652832,15.27594504,.00007098,42.9989,21.8028,232.7133,127.3654,0,U,66968,999,3483,.17739702E-3,.4625E-4,0
STARLINK-36149,2025-288L,2026-07-15T21:56:23.811072,15.27557566,.0001162,42.9996,19.6608,331.3811,28.6976,0,U,66969,999,3489,.26691E-3,.7085E-4,0
STARLINK-35703,2025-288M,2026-07-15T20:49:46.145280,15.27580271,.0002779,43.0126,19.2944,249.2025,110.8529,0,U,66970,999,3489,.41947E-3,.11299E-3,0
STARLINK-35678,2025-288N,2026-07-16T05:08:19.171392,15.27578970,.00007632,43.0011,17.6043,273.0148,87.0617,0,U,66971,999,3494,.33780258E-3,.9045E-4,0
STARLINK-34846,2025-288P,2026-07-15T21:00:52.660800,15.27584023,.0001397,43.0031,19.3629,259.1175,100.9519,0,U,66972,999,3489,.26409E-3,.7013E-4,0
STARLINK-35778,2025-288Q,2026-07-15T22:16:31.920672,15.27589465,.0001505,43.0015,18.9047,268.1564,91.9115,0,U,66973,999,3490,.39904E-3,.10738E-3,0
STARLINK-35780,2025-288R,2026-07-15T22:07:16.955328,15.27584976,.0001574,43.0004,18.8516,275.9495,84.1177,0,U,66974,999,3490,.4917E-3,.13295E-3,0
STARLINK-35777,2025-288S,2026-07-15T22:03:47.601216,15.27589200,.0001433,43.0011,19.6979,279.2431,80.8259,0,U,66975,999,3489,.32715E-3,.8753E-4,0
STARLINK-35772,2025-288T,2026-07-15T21:15:41.227776,15.27591491,.0001889,43.0039,19.4905,265.5485,94.5151,0,U,66976,999,3489,.36555E-3,.9814E-4,0
STARLINK-35770,2025-288U,2026-07-16T05:32:22.722720,15.27575167,.00020068,42.9953,17.7374,73.9441,286.1631,0,U,66977,999,3494,.2384031E-3,.6303E-4,0
STARLINK-35787,2025-288V,2026-07-15T20:47:55.536864,15.27595931,.0001525,43.0018,19.3025,274.1794,85.8883,0,U,66978,999,3489,.48723E-3,.13176E-3,0
STARLINK-36107,2025-288W,2026-07-15T22:01:56.348256,15.27589722,.0002447,43.0029,19.6779,253.1501,106.9083,0,U,66979,999,3489,.39339E-3,.10582E-3,0
STARLINK-36086,2025-288X,2026-07-15T18:38:49.663680,15.27586573,.0001565,43.0010,20.3476,288.6207,71.4474,0,U,66980,999,3487,.31191559E-3,.8333E-4,0
STARLINK-36142,2025-288Y,2026-07-16T05:23:07.176768,15.27582145,.00011342,43.0026,17.6854,286.4523,73.6204,0,U,66981,999,3494,.2051454E-3,.5388E-4,0
STARLINK-36113,2025-288Z,2026-07-15T22:12:49.623840,15.27596154,.0002149,43.0043,18.8765,258.8476,101.2135,0,U,66982,999,3490,.28075E-3,.7475E-4,0
STARLINK-36145,2025-288AA,2026-07-16T05:24:58.207680,15.27583335,.00016773,43.0040,17.6902,268.7025,91.3634,0,U,66983,999,3494,.33917082E-3,.9084E-4,0
STARLINK-35591,2025-288AB,2026-07-15T21:48:59.071392,15.27562611,.0002163,43.0046,19.6132,275.4184,84.6421,0,U,66984,999,3489,.23224E-3,.613E-4,0
STARLINK-36103,2025-288AC,2026-07-15T21:50:50.465184,15.27582996,.0001666,43.0030,19.6195,268.6447,91.4214,0,U,66985,999,3489,.29018E-3,.7732E-4,0
STARLINK-36135,2025-288AD,2026-07-16T05:13:51.845088,15.27585097,.00023924,43.0032,17.6311,268.9701,91.0877,0,U,66986,999,3494,.34007546E-3,.9109E-4,0
STARLINK-36147,2025-288AE,2026-07-16T05:02:45.892896,15.27577850,.00007899,43.0010,17.5719,277.3157,82.7604,0,U,66987,999,3494,.42078672E-3,.11334E-3,0
